NORAD_CAT_ID,OBJECT_NAME,OBJECT_TYPE,EPOCH,MEAN_MOTION,ECCENTRICITY,INCLINATION,RA_OF_ASC_NODE,ARG_OF_PERICENTER,MEAN_ANOMALY,BSTAR,MEAN_MOTION_DOT,MEAN_MOTION_DDOT,TLE_LINE0,TLE_LINE1,TLE_LINE2,SEMIMAJOR_AXIS,PERIOD,APOGEE,PERIGEE,DECAYED
53893.0,STARLINK-5052,PAYLOAD,2023-02-26 22:33:49,15.08825411,0.0001153,53.2158,252.4647,84.9152,275.1971,-7.831e-05,-1.533e-05,0.0,0 STARLINK-5052,1 53893U 22119H   23057.94015549 -.00001533  00000-0 -78310-4 0  9994,2 53893  53.2158 252.4647 0001153  84.9152 275.1971 15.08825411 24185,6917.925,95.438,540.588,538.992,0.0
53893.0,STARLINK-5052,PAYLOAD,2023-02-27 19:13:49,15.08857571,0.0001106,53.2149,248.5987,83.7427,276.3691,0.00065739,0.00010195,0.0,0 STARLINK-5052,1 53893U 22119H   23058.80127236  .00010195  00000-0  65739-3 0  9999,2 53893  53.2149 248.5987 0001106  83.7427 276.3691 15.08857571 24317,6917.827,95.436,540.457,538.927,0.0
53893.0,STARLINK-5052,PAYLOAD,2023-02-28 12:43:04,15.08837733,8.44e-05,53.2158,245.3293,75.7293,284.3793,0.00015054,2.109e-05,0.0,0 STARLINK-5052,1 53893U 22119H   23059.52991724  .00002109  00000-0  15054-3 0  9991,2 53893  53.2158 245.3293 0000844  75.7293 284.3793 15.08837733 24424,6917.887,95.438,540.336,539.168,0.0
53893.0,STARLINK-5052,PAYLOAD,2023-02-28 19:04:37,15.08842,0.0001032,53.2153,244.1384,90.199,269.912,0.00015138,2.122e-05,0.0,0 STARLINK-5052,1 53893U 22119H   23059.79487462  .00002122  00000-0  15138-3 0  9997,2 53893  53.2153 244.1384 0001032  90.1990 269.9120 15.08842000 24888,6917.874,95.437,540.453,539.025,0.0
53893.0,STARLINK-5052,PAYLOAD,2023-03-01 18:55:23,15.08845978,9.17e-05,53.2152,239.6782,93.8168,266.2929,-4.3846e-05,-9.86e-06,0.0,0 STARLINK-5052,1 53893U 22119H   23060.78847193 -.00000986  00000-0 -43846-4 0  9995,2 53893  53.2152 239.6782 0000917  93.8168 266.2929 15.08845978 24611,6917.862,95.437,540.361,539.093,0.0
53893.0,STARLINK-5052,PAYLOAD,2023-03-02 18:46:11,15.08840761,0.0001106,53.2155,235.2177,101.6747,258.4369,0.00011729,1.579e-05,0.0,0 STARLINK-5052,1 53893U 22119H   23061.78207381  .00001579  00000-0  11729-3 0  9996,2 53893  53.2155 235.2177 0001106 101.6747 258.4369 15.08840761 25185,6917.878,95.438,540.508,538.978,0.0
53893.0,STARLINK-5052,PAYLOAD,2023-03-03 07:29:16,15.08843171,0.0001173,53.2153,232.8385,96.3567,263.7558,0.00010382,1.365e-05,0.0,0 STARLINK-5052,1 53893U 22119H   23062.31199276  .00001365  00000-0  10382-3 0  9996,2 53893  53.2153 232.8385 0001173  96.3567 263.7558 15.08843171 24840,6917.871,95.437,540.547,538.924,0.0
53893.0,STARLINK-5052,PAYLOAD,2023-03-04 10:30:48,15.08846535,0.0001733,53.2113,227.7844,80.4344,279.6843,0.00010408,1.369e-05,0.0,0 STARLINK-5052,1 53893U 22119H   23063.43806703  .00001369  00000-0  10408-3 0  9993,2 53893  53.2113 227.7844 0001733  80.4344 279.6843 15.08846535 25018,6917.86,95.437,540.924,538.527,0.0
53893.0,STARLINK-5052,PAYLOAD,2023-03-04 12:06:12,15.08834087,0.000108,53.2165,227.4873,89.5765,270.535,-7.8772e-05,-1.541e-05,0.0,0 STARLINK-5052,1 53893U 22119H   23063.50431127 -.00001541  00000-0 -78772-4 0  9998,2 53893  53.2165 227.4873 0001080  89.5765 270.5350 15.08834087 25445,6917.898,95.438,540.511,539.016,0.0
53893.0,STARLINK-5052,PAYLOAD,2023-03-04 16:52:21,15.08840711,0.0001156,53.2157,226.5937,94.0923,266.0201,4.918e-05,4.95e-06,0.0,0 STARLINK-5052,1 53893U 22119H   23063.70302800  .00000495  00000-0  49180-4 0  9991,2 53893  53.2157 226.5937 0001156  94.0923 266.0201 15.08840711 25051,6917.878,95.438,540.543,538.944,0.0
53893.0,STARLINK-5052,PAYLOAD,2023-03-05 10:21:36,15.08839284,0.0001306,53.2154,223.3246,82.1613,277.9528,-3.0761e-05,-7.77e-06,0.0,0 STARLINK-5052,1 53893U 22119H   23064.43167083 -.00000777  00000-0 -30761-4 0  9994,2 53893  53.2154 223.3246 0001306  82.1613 277.9528 15.08839284 25581,6917.883,95.438,540.651,538.844,0.0
53893.0,STARLINK-5052,PAYLOAD,2023-03-05 16:43:08,15.08841918,0.0001318,53.2148,222.1354,82.773,277.3412,2.9112e-05,1.75e-06,0.0,0 STARLINK-5052,1 53893U 22119H   23064.69662958  .00000175  00000-0  29112-4 0  9991,2 53893  53.2148 222.1354 0001318  82.7730 277.3412 15.08841918 25628,6917.875,95.437,540.651,538.828,0.0
53893.0,STARLINK-5052,PAYLOAD,2023-03-06 10:12:23,15.088429,0.0001422,53.2154,218.864,84.9112,275.2042,0.00018362,2.636e-05,0.0,0 STARLINK-5052,1 53893U 22119H   23065.42526979  .00002636  00000-0  18362-3 0  9993,2 53893  53.2154 218.8640 0001422  84.9112 275.2042 15.08842900 25313,6917.872,95.437,540.72,538.753,0.0
53893.0,STARLINK-5052,PAYLOAD,2023-03-06 19:44:41,15.08857171,0.00014,53.2144,217.0787,91.5047,268.6106,2.1697e-05,5.7e-07,0.0,0 STARLINK-5052,1 53893U 22119H   23065.82270005  .00000057  00000-0  21697-4 0  9994,2 53893  53.2144 217.0787 0001400  91.5047 268.6106 15.08857171 25371,6917.828,95.436,540.661,538.724,0.0
53893.0,STARLINK-5052,PAYLOAD,2023-03-07 10:03:11,15.08824722,0.0001376,53.2148,214.403,86.711,273.404,-7.2034e-05,-1.434e-05,0.0,0 STARLINK-5052,1 53893U 22119H   23066.41888196 -.00001434  00000-0 -72034-4 0  9999,2 53893  53.2148 214.4030 0001376  86.7110 273.4040 15.08824722 25463,6917.927,95.439,540.744,538.84,0.0
53893.0,STARLINK-5052,PAYLOAD,2023-03-07 19:35:30,15.08826233,0.0001536,53.215,212.6184,89.0694,271.0474,-5.6692e-05,-1.19e-05,0.0,0 STARLINK-5052,1 53893U 22119H   23066.81632593 -.00001190  00000-0 -56692-4 0  9992,2 53893  53.2150 212.6184 0001536  89.0694 271.0474 15.08826233 25944,6917.922,95.438,540.85,538.725,0.0
53893.0,STARLINK-5052,PAYLOAD,2023-03-08 09:53:58,15.08840599,0.0001289,53.2166,209.9419,76.7172,283.3963,4.1534e-05,3.73e-06,0.0,0 STARLINK-5052,1 53893U 22119H   23067.41248223  .00000373  00000-0  41534-4 0  9991,2 53893  53.2166 209.9419 0001289  76.7172 283.3963 15.08840599 25614,6917.879,95.438,540.635,538.852,0.0
53893.0,STARLINK-5052,PAYLOAD,2023-03-08 19:26:16,15.08858764,0.0001574,53.2152,208.1579,82.881,277.2361,0.00057791,8.926e-05,0.0,0 STARLINK-5052,1 53893U 22119H   23067.80991504  .00008926  00000-0  57791-3 0  9994,2 53893  53.2152 208.1579 0001574  82.8810 277.2361 15.08858764 25674,6917.823,95.436,540.777,538.599,0.0
53893.0,STARLINK-5052,PAYLOAD,2023-03-09 01:47:49,15.08845512,0.0002113,53.2153,206.9669,84.4388,275.6845,0.00034528,5.212e-05,0.0,0 STARLINK-5052,1 53893U 22119H   23068.07488230  .00005212  00000-0  34528-3 0  9999,2 53893  53.2153 206.9669 0002113  84.4388 275.6845 15.08845512 25710,6917.864,95.437,541.19,538.267,0.0
53893.0,STARLINK-5052,PAYLOAD,2023-03-09 16:06:16,15.08866695,0.0001337,53.2156,204.2926,94.5992,265.5153,0.00062888,9.742e-05,0.0,0 STARLINK-5052,1 53893U 22119H   23068.67102979  .00009742  00000-0  62888-3 0  9990,2 53893  53.2156 204.2926 0001337  94.5992 265.5153 15.08866695 25805,6917.799,95.436,540.589,538.739,0.0
53893.0,STARLINK-5052,PAYLOAD,2023-03-10 09:35:31,15.08833474,9.55e-05,53.215,201.0208,68.5331,291.5763,-0.00041601,-6.901e-05,0.0,0 STARLINK-5052,1 53893U 22119H   23069.39967215 -.00006901  00000-0 -41601-3 0  9998,2 53893  53.2150 201.0208 0000955  68.5331 291.5763 15.08833474 25917,6917.9,95.438,540.426,539.105,0.0
53893.0,STARLINK-5052,PAYLOAD,2023-03-10 15:57:03,15.08849555,7.96e-05,53.2158,199.8316,63.0171,297.0902,-4.0915e-05,-9.39e-06,0.0,0 STARLINK-5052,1 53893U 22119H   23069.66462674 -.00000939  00000-0 -40915-4 0  9990,2 53893  53.2158 199.8316 0000796  63.0171 297.0902 15.08849555 25951,6917.851,95.437,540.267,539.166,0.0
53893.0,STARLINK-5052,PAYLOAD,2023-03-11 01:29:23,15.08820801,0.0002391,53.216,198.046,82.9011,277.2253,-0.00041669,-6.911e-05,0.0,0 STARLINK-5052,1 53893U 22119H   23070.06208171 -.00006911  00000-0 -41669-3 0  9998,2 53893  53.2160 198.0460 0002391  82.9011 277.2253 15.08820801 26011,6917.939,95.439,541.458,538.15,0.0
53893.0,STARLINK-5052,PAYLOAD,2023-03-11 09:26:19,15.08827733,0.0001449,53.2182,196.5618,89.076,271.0398,-0.0001937,-3.368e-05,0.0,0 STARLINK-5052,1 53893U 22119H   23070.39327960 -.00003368  00000-0 -19370-3 0  9999,2 53893  53.2182 196.5618 0001449  89.0760 271.0398 15.08827733 26063,6917.918,95.438,540.785,538.78,0.0
53893.0,STARLINK-5052,PAYLOAD,2023-03-11 17:23:14,15.08839776,0.0001183,53.2158,195.0723,90.074,270.0387,4.5369e-05,4.34e-06,0.0,0 STARLINK-5052,1 53893U 22119H   23070.72447529  .00000434  00000-0  45369-4 0  9997,2 53893  53.2158 195.0723 0001183  90.0740 270.0387 15.08839776 26115,6917.881,95.438,540.564,538.928,0.0
53893.0,STARLINK-5052,PAYLOAD,2023-03-12 07:41:44,15.08819769,5.72e-05,53.2172,192.3977,106.6428,253.4626,2.3468e-05,8.6e-07,0.0,0 STARLINK-5052,1 53893U 22119H   23071.32064922  .00000086  00000-0  23468-4 0  9995,2 53893  53.2172 192.3977 0000572 106.6428 253.4626 15.08819769 26201,6917.942,95.439,540.203,539.412,0.0
53893.0,STARLINK-5052,PAYLOAD,2023-03-12 17:14:02,15.08844799,3.03e-05,53.2167,190.6142,87.6565,272.4462,0.00035133,5.309e-05,0.0,0 STARLINK-5052,1 53893U 22119H   23071.71808168  .00005309  00000-0  35133-3 0  9990,2 53893  53.2167 190.6142 0000303  87.6565 272.4462 15.08844799 26268,6917.866,95.437,539.94,539.521,0.0
53893.0,STARLINK-5052,PAYLOAD,2023-03-13 02:46:21,15.08838023,0.0001187,53.2161,188.8303,87.792,272.3208,0.00031375,4.709e-05,0.0,0 STARLINK-5052,1 53893U 22119H   23072.11552752  .00004709  00000-0  31375-3 0  9997,2 53893  53.2161 188.8303 0001187  87.7920 272.3208 15.08838023 26324,6917.886,95.438,540.573,538.93,0.0
53893.0,STARLINK-5052,PAYLOAD,2023-03-13 10:43:17,15.08840075,9.65e-05,53.2167,187.3438,98.4519,261.6583,0.00031666,4.755e-05,0.0,0 STARLINK-5052,1 53893U 22119H   23072.44672662  .00004755  00000-0  31666-3 0  9990,2 53893  53.2167 187.3438 0000965  98.4519 261.6583 15.08840075 26797,6917.88,95.438,540.413,539.078,0.0
53893.0,STARLINK-5052,PAYLOAD,2023-03-14 10:34:04,15.08835321,9.04e-05,53.2166,182.883,101.9439,258.1655,-2.5583e-05,-6.95e-06,0.0,0 STARLINK-5052,1 53893U 22119H   23073.44032958 -.00000695  00000-0 -25583-4 0  9992,2 53893  53.2166 182.8830 0000904 101.9439 258.1655 15.08835321 26526,6917.895,95.438,540.385,539.134,0.0
